Ortschaftsname,PLZ,Zusatzziffer,Gemeindename,BFS-Nr,Kantonskürzel,Longitude,Latitude,Sprache,Validity
Aeugst am Albis,8914,0,Aeugst am Albis,1,ZH,8.487911353880977,47.26870659169308,de,2008-07-01
Zwillikon,8909,0,Affoltern am Albis,2,ZH,8.4338163821915,47.289571908993466,de,2008-07-01
Bonstetten,8906,0,Bonstetten,3,ZH,8.462510333349584,47.31603645125777,de,2008-07-01
Sihlbrugg,6340,4,Hausen am Albis,4,ZH,8.57526328532996,47.22116099918424,de,2008-07-01
Hedingen,8908,0,Hedingen,5,ZH,8.450402732189215,47.30233830422904,de,2008-07-01
Kappel am Albis,8926,0,Kappel am Albis,6,ZH,8.518401273495831,47.22850464821109,de,2008-07-01
Knonau,8934,0,Knonau,7,ZH,8.463070514398174,47.22429178974388,de,2008-07-01
Maschwanden,8933,0,Maschwanden,8,ZH,8.430865808171731,47.23566580505311,de,2008-07-01
Mettmenstetten,8932,0,Mettmenstetten,9,ZH,8.46621230087719,47.24873640600875,de,2008-07-01
Affoltern am Albis,8910,0,Obfelden,10,ZH,8.438566231239783,47.27137607065747,de,2008-07-01
Ottenbach,8913,0,Ottenbach,11,ZH,8.408574839512227,47.28107502915263,de,2008-07-01
Rifferswil,8911,0,Rifferswil,12,ZH,8.494887179527833,47.24550056831461,de,2008-07-01
Adliswil,8134,0,Stallikon,13,ZH,8.505877599105137,47.31210529034569,de,2008-07-01
Wettswil,8907,0,Wettswil am Albis,14,ZH,8.470612514879852,47.337402201764085,de,2008-07-01
Benken ZH,8463,0,Benken (ZH),22,ZH,8.654666544357353,47.65377796251362,de,2008-07-01
Berg am Irchel,8415,0,Berg am Irchel,23,ZH,8.585741053392127,47.56297524636508,de,2008-07-01
Buch am Irchel,8414,0,Buch am Irchel,24,ZH,8.625154489252619,47.55047880538237,de,2008-07-01
Dachsen,8447,0,Dachsen,25,ZH,8.62437529263727,47.6617499423667,de,2008-07-01
Dorf,8458,0,Dorf,26,ZH,8.64932974753579,47.5712719631618,de,2008-07-01
Feuerthalen,8245,0,Feuerthalen,27,ZH,8.644166019684505,47.68902348007601,de,2008-07-01
Flaach,8416,0,Flaach,28,ZH,8.601940328056678,47.583401999004295,de,2008-07-01
Flurlingen,8247,0,Flurlingen,29,ZH,8.6355100827768,47.6836038261692,de,2008-07-01
Henggart,8444,0,Henggart,31,ZH,8.680830541990279,47.56038766231421,de,2008-07-01
Kleinandelfingen,8451,0,Kleinandelfingen,33,ZH,8.684949094705372,47.60679238878254,de,2008-07-01
Nohl,8212,4,Laufen-Uhwiesen,34,ZH,8.610294829282594,47.66327005571952,de,2008-07-01
Marthalen,8460,0,Marthalen,35,ZH,8.638588343762152,47.61833178249139,de,2008-07-01
Trüllikon,8466,0,Ossingen,37,ZH,8.689871286088065,47.62522371981104,de,2008-07-01
Rheinau,8462,0,Rheinau,38,ZH,8.618020226084239,47.6276412561848,de,2008-07-01
Thalheim an der Thur,8478,0,Thalheim an der Thur,39,ZH,8.745260537156133,47.582005112517386,de,2008-07-01
Rudolfingen,8465,0,Trüllikon,40,ZH,8.671263890425347,47.63812495884512,de,2008-07-01
Truttikon,8467,0,Truttikon,41,ZH,8.729610675287738,47.632404072922114,de,2008-07-01
Volken,8459,0,Volken,43,ZH,8.63146624787636,47.576626095025695,de,2008-07-01
Bülach,8180,0,Bachenbülach,51,ZH,8.564421710307736,47.51030825103764,de,2008-07-01
Bassersdorf,8303,0,Bassersdorf,52,ZH,8.625925501111519,47.4402100963228,de,2008-07-01
Bülach,8180,0,Bülach,53,ZH,8.545629418604193,47.53066414014792,de,2008-07-01
Dietlikon,8305,0,Dietlikon,54,ZH,8.612448140785865,47.424879085999095,de,2008-07-01
Eglisau,8193,0,Eglisau,55,ZH,8.523048290350431,47.57234105609508,de,2008-07-01
Embrach,8424,0,Embrach,56,ZH,8.599599424268161,47.51005354341258,de,2008-07-01
Freienstein,8427,2,Freienstein-Teufen,57,ZH,8.596010573902099,47.532500535774496,de,2008-07-01
Glattfelden,8192,0,Glattfelden,58,ZH,8.502318141225754,47.555370250687645,de,2008-07-01
Hochfelden,8182,0,Hochfelden,59,ZH,8.508463863227513,47.528038918560895,de,2008-07-01
Höri,8181,0,Höri,60,ZH,8.500889987738475,47.50803664363384,de,2008-07-01
Hüntwangen,8194,0,Hüntwangen,61,ZH,8.498233472146518,47.59304235665857,de,2008-07-01
Kloten,8302,0,Kloten,62,ZH,8.582091155537297,47.45875671859486,de,2008-07-01
Lufingen,8426,0,Lufingen,63,ZH,8.59476071876244,47.48180331110547,de,2008-07-01
Nürensdorf,8309,0,Nürensdorf,64,ZH,8.651219194297617,47.45497196842903,de,2008-07-01
Oberembrach,8425,0,Oberembrach,65,ZH,8.633535285859539,47.48957276633492,de,2008-07-01
Zürich,8052,0,Opfikon,66,ZH,8.562018473937373,47.41744129212128,de,2008-07-01
Rafz,8197,0,Rafz,67,ZH,8.544794368574516,47.60824871844842,de,2008-07-01
Rorbas,8427,3,Rorbas,68,ZH,8.569017300812781,47.53234250825681,de,2008-07-01
Wallisellen,8304,0,Wallisellen,69,ZH,8.596275289414212,47.42120835564036,de,2008-07-01
Wasterkingen,8195,0,Wasterkingen,70,ZH,8.471969517538314,47.59653371393546,de,2008-07-01
Wil ZH,8196,0,Wil (ZH),71,ZH,8.501493934474368,47.6121795196919,de,2008-07-01
Bülach,8180,0,Winkel,72,ZH,8.56796055493353,47.50703316748673,de,2008-07-01
Bachs,8164,0,Bachs,81,ZH,8.425734543088465,47.52876405918519,de,2008-07-01
Boppelsen,8113,0,Boppelsen,82,ZH,8.407193997162128,47.46994360778631,de,2008-07-01
Buchs ZH,8107,0,Buchs (ZH),83,ZH,8.440635794612604,47.45866673704776,de,2008-07-01
Dällikon,8108,0,Dällikon,84,ZH,8.432374752330643,47.43900370723226,de,2008-07-01
Dänikon ZH,8114,0,Dänikon,85,ZH,8.404722680308707,47.44435460474701,de,2008-07-01
Dielsdorf,8157,0,Dielsdorf,86,ZH,8.45519210400892,47.475632240708016,de,2008-07-01
Hüttikon,8115,0,Hüttikon,87,ZH,8.392296033212872,47.441101681351554,de,2008-07-01
Steinmaur,8162,0,Neerach,88,ZH,8.456907336746792,47.51083460255063,de,2008-07-01
Niederhasli,8155,0,Niederglatt,89,ZH,8.48034588187964,47.49126851860967,de,2008-07-01
Niederhasli,8155,0,Niederhasli,90,ZH,8.486615493555027,47.47667575967665,de,2008-07-01
Niederweningen,8166,0,Niederweningen,91,ZH,8.374606054966783,47.496889586670505,de,2008-07-01
Oberglatt ZH,8154,0,Oberglatt,92,ZH,8.524915084359433,47.48036222225749,de,2008-07-01
Siglistorf,5462,0,Oberweningen,93,ZH,8.4007536766839,47.52759892591363,de,2008-07-01
Buchs ZH,8107,0,Otelfingen,94,ZH,8.413565967607223,47.455590550903786,de,2008-07-01
Regensberg,8158,0,Regensberg,95,ZH,8.42287643082613,47.47567206334546,de,2008-07-01
Regensdorf,8105,0,Regensdorf,96,ZH,8.465826285684395,47.4319379157927,de,2008-07-01
Zürich,8052,0,Rümlang,97,ZH,8.540725263045537,47.43260377966216,de,2008-07-01
Schleinikon,8165,3,Schleinikon,98,ZH,8.39112726797213,47.49436024317576,de,2008-07-01
Schöfflisdorf,8165,0,Schöfflisdorf,99,ZH,8.420413812649604,47.499582387905214,de,2008-07-01
Stadel b. Niederglatt,8174,0,Stadel,100,ZH,8.469859656748854,47.526991174864094,de,2008-07-01
Niederhasli,8155,0,Steinmaur,101,ZH,8.474590065376153,47.491392223199455,de,2008-07-01
Weiach,8187,0,Weiach,102,ZH,8.441509116028257,47.55351887219484,de,2008-07-01
Hinwil,8340,0,Bäretswil,111,ZH,8.851503983044887,47.32318064449313,de,2008-07-01
Bubikon,8608,0,Bubikon,112,ZH,8.810813148777084,47.27466397518058,de,2008-07-01
Hinwil,8340,0,Dürnten,113,ZH,8.851012312835968,47.2839140566789,de,2008-07-01
Hinwil,8340,0,Fischenthal,114,ZH,8.891286316713703,47.31463510469517,de,2008-07-01
Bertschikon (Gossau ZH),8614,0,Gossau (ZH),115,ZH,8.757023393601285,47.32078088816535,de,2008-07-01
Grüningen,8627,0,Grüningen,116,ZH,8.762113623757584,47.278765154276456,de,2008-07-01
Hinwil,8340,0,Hinwil,117,ZH,8.85042600289404,47.302914016200994,de,2008-07-01
Rüti ZH,8630,0,Rüti (ZH),118,ZH,8.860706042953232,47.25805090485419,de,2008-07-01
Aathal-Seegräben,8607,0,Seegräben,119,ZH,8.767359557100448,47.34309566523963,de,2008-07-01
Fischenthal,8497,0,Wald (ZH),120,ZH,8.932103896751995,47.31406671256556,de,2008-07-01
Adetswil,8345,0,Wetzikon (ZH),121,ZH,8.830090605594927,47.33480863845595,de,2008-07-01
Zürich,8041,0,Adliswil,131,ZH,8.513269871915519,47.32233637368064,de,2008-07-01
Kilchberg ZH,8802,0,Kilchberg (ZH),135,ZH,8.545314270547339,47.32158525469756,de,2008-07-01
Langnau am Albis,8135,0,Langnau am Albis,136,ZH,8.528289972760183,47.28307437789006,de,2008-07-01
Oberrieden,8942,0,Oberrieden,137,ZH,8.569209484942323,47.27285334996683,de,2008-07-01
Richterswil,8805,0,Richterswil,138,ZH,8.695921440587972,47.208121446234856,de,2008-07-01
Rüschlikon,8803,0,Rüschlikon,139,ZH,8.547617515019214,47.30461450860216,de,2008-07-01
Gattikon,8136,0,Thalwil,141,ZH,8.553091141227787,47.27821877052136,de,2008-07-01
Erlenbach ZH,8703,0,Erlenbach (ZH),151,ZH,8.59918522368462,47.30399176321523,de,2008-07-01
Erlenbach ZH,8703,0,Herrliberg,152,ZH,8.604055719019238,47.29369122212331,de,2008-07-01
Grüningen,8627,0,Hombrechtikon,153,ZH,8.778993972617705,47.26494967703241,de,2008-07-01
Forch,8127,0,Küsnacht (ZH),154,ZH,8.648898967303692,47.322373720578895,de,2008-07-01
Oetwil am See,8618,0,Männedorf,155,ZH,8.712196092016388,47.26563668852605,de,2008-07-01
Meilen,8706,0,Meilen,156,ZH,8.646048603739532,47.281459882230045,de,2008-07-01
Oetwil am See,8618,0,Oetwil am See,157,ZH,8.718220715040642,47.27459686556853,de,2008-07-01
Hombrechtikon,8634,0,Stäfa,158,ZH,8.75555667777745,47.24288219609672,de,2008-07-01
Uetikon am See,8707,0,Uetikon am See,159,ZH,8.68226867462915,47.27120320574424,de,2008-07-01
Zumikon,8126,0,Zumikon,160,ZH,8.625842113545975,47.33589625560546,de,2008-07-01
Zollikerberg,8125,0,Zollikon,161,ZH,8.608221655489901,47.34465242677607,de,2008-07-01
Illnau,8308,0,Fehraltorf,172,ZH,8.747317006087508,47.404283236731175,de,2008-07-01
Hittnau,8335,0,Hittnau,173,ZH,8.829818323403941,47.3672278630916,de,2008-07-01
Kemptthal,8310,0,Lindau,176,ZH,8.703725885185047,47.44887298425351,de,2008-07-01
Pfäffikon ZH,8330,0,Pfäffikon,177,ZH,8.796360148509432,47.36690541182255,de,2008-07-01
Madetswil,8322,0,Russikon,178,ZH,8.793747217663336,47.41220572446654,de,2008-07-01
Agasul,8308,2,Weisslingen,180,ZH,8.746811360680825,47.42682371733336,de,2008-07-01
Wila,8492,0,Wila,181,ZH,8.867380297062251,47.40055757068583,de,2008-07-01
Madetswil,8322,0,Wildberg,182,ZH,8.80474303500918,47.4185205157774,de,2008-07-01
Gockhausen,8044,1,Dübendorf,191,ZH,8.604425594944797,47.37846195674399,de,2008-07-01
Forch,8127,0,Egg,192,ZH,8.662024467794078,47.30566472246291,de,2008-07-01
Fällanden,8117,0,Fällanden,193,ZH,8.64085556537135,47.37038005952463,de,2008-07-01
Greifensee,8606,2,Greifensee,194,ZH,8.67978104151809,47.36617957444976,de,2008-07-01
Binz,8122,0,Maur,195,ZH,8.62714754196478,47.356688615933656,de,2008-07-01
Aathal-Seegräben,8607,0,Mönchaltorf,196,ZH,8.758535529721236,47.328562779260274,de,2008-07-01
Dübendorf,8600,0,Schwerzenbach,197,ZH,8.650132553146598,47.39097000872332,de,2008-07-01
Gutenswil,8605,0,Uster,198,ZH,8.7146734553444,47.37679457690438,de,2008-07-01
Effretikon,8307,0,Volketswil,199,ZH,8.682460581742713,47.41183044379324,de,2008-07-01
Brüttisellen,8306,0,Wangen-Brüttisellen,200,ZH,8.637020462627834,47.42218616368609,de,2008-07-01
Altikon,8479,0,Altikon,211,ZH,8.784487579228761,47.57821306537119,de,2008-07-01
Brütten,8311,0,Brütten,213,ZH,8.675184951624297,47.475232536457966,de,2008-07-01
Rutschwil (Dägerlen),8471,0,Dägerlen,214,ZH,8.732785548705644,47.556279715111366,de,2008-07-01
Dättlikon,8421,0,Dättlikon,215,ZH,8.623523171011907,47.52858201504581,de,2008-07-01
Dinhard,8474,0,Dinhard,216,ZH,8.765165363560921,47.55912497430107,de,2008-07-01
Ellikon an der Thur,8548,0,Ellikon an der Thur,218,ZH,8.827220439669107,47.56245731384108,de,2008-07-01
Elsau,8352,0,Elsau,219,ZH,8.804811911329173,47.50224214680485,de,2008-07-01
Gerlikon,8500,4,Hagenbuch,220,ZH,8.875508589137782,47.52769445652258,de,2008-07-01
Hettlingen,8442,0,Hettlingen,221,ZH,8.710725043684704,47.54810659301347,de,2008-07-01
Aesch (Neftenbach),8412,0,Neftenbach,223,ZH,8.677500146570514,47.54465135810802,de,2008-07-01
Pfungen,8422,0,Pfungen,224,ZH,8.642368739518986,47.50972556603519,de,2008-07-01
Rickenbach ZH,8545,0,Rickenbach (ZH),225,ZH,8.795570400673322,47.55374902495544,de,2008-07-01
Hofstetten ZH,8354,0,Schlatt (ZH),226,ZH,8.839626924959333,47.472810586424494,de,2008-07-01
Seuzach,8472,0,Seuzach,227,ZH,8.724353074526844,47.53483566477892,de,2008-07-01
Bichelsee,8363,0,Turbenthal,228,ZH,8.92130422393863,47.434054819179245,de,2008-07-01
Kemptthal,8310,0,Winterthur,230,ZH,8.712190930070193,47.460093394159735,de,2008-07-01
Kollbrunn,8483,0,Zell (ZH),231,ZH,8.785673936745717,47.45513703148285,de,2008-07-01
Aesch ZH,8904,0,Aesch (ZH),241,ZH,8.435471511392032,47.3354804434134,de,2008-07-01
Uitikon Waldegg,8142,0,Birmensdorf (ZH),242,ZH,8.465289722474758,47.35585979796093,de,2008-07-01
Dietikon,8953,0,Dietikon,243,ZH,8.398141750747978,47.40004401146718,de,2008-07-01
Fahrweid,8951,0,Geroldswil,244,ZH,8.410120111262122,47.41493835080796,de,2008-07-01
Oberengstringen,8102,0,Oberengstringen,245,ZH,8.46503601621043,47.41132082251315,de,2008-07-01
Oetwil an der Limmat,8955,0,Oetwil an der Limmat,246,ZH,8.392886637349145,47.42949539077371,de,2008-07-01
Urdorf,8902,0,Schlieren,247,ZH,8.435109162562297,47.39065083422077,de,2008-07-01
Uitikon Waldegg,8142,0,Uitikon,248,ZH,8.45485947771037,47.366697120448336,de,2008-07-01
Unterengstringen,8103,0,Unterengstringen,249,ZH,8.444449408397965,47.41124152035877,de,2008-07-01
Urdorf,8902,0,Urdorf,250,ZH,8.423872439700938,47.382141356365096,de,2008-07-01
Weiningen ZH,8104,0,Weiningen (ZH),251,ZH,8.437162959630145,47.42162118880589,de,2008-07-01
Zürich,8001,0,Zürich,261,ZH,8.541367614572195,47.37293396898069,de,2008-07-01
Andelfingen,8450,0,Andelfingen,291,ZH,8.675343203557901,47.594716181552336,de,2008-07-01
Waltalingen,8468,0,Stammheim,292,ZH,8.766981680141667,47.62082941247906,de,2008-07-01
Au ZH,8804,0,Wädenswil,293,ZH,8.644938275686831,47.24392572814526,de,2008-07-01
Elgg,8353,0,Elgg,294,ZH,8.860671468684343,47.49072469942852,de,2008-07-01
Sihlbrugg,6340,4,Horgen,295,ZH,8.572410565473275,47.23363271476234,de,2008-07-01
Effretikon,8307,0,Illnau-Effretikon,296,ZH,8.692021931829046,47.42487278870717,de,2008-07-01
Saland,8493,0,Bauma,297,ZH,8.8625658587116,47.38903649927022,de,2008-07-01
Wiesendangen,8542,0,Wiesendangen,298,ZH,8.787994755833644,47.52267451367084,de,2008-07-01
Wolhusen,6110,0,Doppleschwand,1001,LU,8.058444204405221,47.028744778061295,de,2008-07-01
Schachen LU,6105,0,Entlebuch,1002,LU,8.11934448742092,47.00716075016235,de,2008-07-01
Schüpfheim,6170,0,Flühli,1004,LU,8.04165636986652,46.913279247898274,de,2008-07-01
Entlebuch,6162,0,Hasle (LU),1005,LU,8.059205046394956,46.993741536665134,de,2008-07-01
Fontannen b. Wolhusen,6110,2,Romoos,1007,LU,7.968090375078293,47.020399330698986,de,2008-07-01
Schüpfheim,6170,0,Schüpfheim,1008,LU,8.00570899768901,46.94396446679657,de,2008-07-01
Schachen LU,6105,0,Werthenstein,1009,LU,8.132261484296658,47.03000956918966,de,2008-07-01
Trubschachen,3555,0,Escholzmatt-Marbach,1010,LU,7.869866697937972,46.88654707234472,de,2008-07-01
Aesch LU,6287,0,Aesch (LU),1021,LU,8.246056469523536,47.25798052784437,de,2008-07-01
Inwil,6034,0,Ballwil,1023,LU,8.349493919354977,47.13940354497071,de,2008-07-01
Emmenbrücke,6020,0,Emmen,1024,LU,8.26149640305431,47.0761704994256,de,2008-07-01
Ermensee,6294,0,Ermensee,1025,LU,8.236763769635687,47.224425388784,de,2008-07-01
Rain,6026,0,Eschenbach (LU),1026,LU,8.282795272140362,47.12772558479813,de,2008-07-01
Gelfingen,6284,0,Hitzkirch,1030,LU,8.274773021885043,47.20774996396814,de,2008-07-01
Eschenbach LU,6274,0,Hochdorf,1031,LU,8.309161930860576,47.14489635421032,de,2008-07-01
Ballwil,6275,0,Hohenrain,1032,LU,8.334739415729773,47.1628771591753,de,2008-07-01
Inwil,6034,0,Inwil,1033,LU,8.363698358549682,47.12782426319991,de,2008-07-01
Rain,6026,0,Rain,1037,LU,8.264704240847177,47.132952991328445,de,2008-07-01
Rain,6026,0,Römerswil,1039,LU,8.255604157113929,47.146426423606485,de,2008-07-01
Rothenburg,6023,0,Rothenburg,1040,LU,8.267161021237623,47.10330668254875,de,2008-07-01
Aesch LU,6287,0,Schongau,1041,LU,8.246729479895363,47.26652759264357,de,2008-07-01
Ebikon,6030,0,Adligenswil,1051,LU,8.355642876246831,47.0781503005917,de,2008-07-01
Ebikon,6030,0,Buchrain,1052,LU,8.346993041282104,47.09025628980918,de,2008-07-01
Dierikon,6036,0,Dierikon,1053,LU,8.373694008401078,47.09370591717299,de,2008-07-01
Luzern,6004,0,Ebikon,1054,LU,8.30303293506817,47.06600604319146,de,2008-07-01
Gisikon,6038,0,Gisikon,1055,LU,8.400156356928015,47.12688384617889,de,2008-07-01
Weggis,6353,0,Greppen,1056,LU,8.440734555171323,47.051610278454845,de,2008-07-01
Luzern,6005,0,Horw,1058,LU,8.318001293055074,47.03103788096487,de,2008-07-01
Luzern,6005,0,Kriens,1059,LU,8.292933754026578,47.040633500048514,de,2008-07-01
Luzern,6003,0,Luzern,1061,LU,8.297059748040796,47.05002942232103,de,2008-07-01
Luzern,6014,0,Malters,1062,LU,8.23365799909248,47.05622791435386,de,2008-07-01
Luzern,6006,0,Meggen,1063,LU,8.355132200048427,47.0383348587727,de,2008-07-01
Meierskappel,6344,0,Meierskappel,1064,LU,8.435729282813377,47.11637500736569,de,2008-07-01
Perlen,6035,0,Root,1065,LU,8.364726463145507,47.11067782760311,de,2008-07-01
Eigenthal,6013,0,Schwarzenberg,1066,LU,8.21018252112222,46.980357158593385,de,2008-07-01
Udligenswil,6044,0,Udligenswil,1067,LU,8.39894542455474,47.091797741776105,de,2008-07-01
Vitznau,6354,0,Vitznau,1068,LU,8.491068806257681,47.01471713223565,de,2008-07-01
Weggis,6353,0,Weggis,1069,LU,8.43259182724111,47.03897647777447,de,2008-07-01
Neudorf,6025,0,Beromünster,1081,LU,8.20699935684128,47.178147779782726,de,2008-07-01
Büron,6233,0,Büron,1082,LU,8.095181378876521,47.21384349474602,de,2008-07-01
Buttisholz,6018,0,Buttisholz,1083,LU,8.095547821252433,47.11412083435599,de,2008-07-01
Eich,6205,0,Eich,1084,LU,8.173736098597718,47.158526905385386,de,2008-07-01
Geuensee,6232,0,Geuensee,1085,LU,8.120065917258948,47.20296186231767,de,2008-07-01
Grosswangen,6022,0,Grosswangen,1086,LU,8.054767256197172,47.13284318716972,de,2008-07-01
Hildisrieden,6024,0,Hildisrieden,1088,LU,8.234924345377754,47.14634556566581,de,2008-07-01
St. Erhard,6212,0,Knutwil,1089,LU,8.070966292216967,47.18216110032524,de,2008-07-01
Sursee,6210,0,Mauensee,1091,LU,8.09130589219855,47.17143196884598,de,2008-07-01
Hellbühl,6016,0,Neuenkirch,1093,LU,8.195570266697773,47.07246507756462,de,2008-07-01
Nottwil,6207,0,Nottwil,1094,LU,8.137379724296979,47.12749675123342,de,2008-07-01
Buttisholz,6018,0,Oberkirch,1095,LU,8.098759372137682,47.1404219795921,de,2008-07-01
Pfeffikon LU,5735,0,Rickenbach (LU),1097,LU,8.162245467700505,47.24649854518861,de,2008-07-01
Hellbühl,6016,0,Ruswil,1098,LU,8.18315292441358,47.07310314472529,de,2008-07-01
Sursee,6210,0,Schenkon,1099,LU,8.124045114218672,47.17520494208185,de,2008-07-01
Schlierbach,6231,0,Schlierbach,1100,LU,8.118653537741917,47.229256723146776,de,2008-07-01
Hildisrieden,6024,0,Sempach,1102,LU,8.206582642291183,47.158188818316994,de,2008-07-01
Sursee,6210,0,Sursee,1103,LU,8.104432321293013,47.17732622931657,de,2008-07-01
Knutwil,6213,0,Triengen,1104,LU,8.071617827252709,47.2139357948892,de,2008-07-01
Wolhusen,6110,0,Wolhusen,1107,LU,8.081725936371063,47.05543046000658,de,2008-07-01
Alberswil,6248,0,Alberswil,1121,LU,7.993386971029583,47.14784729197202,de,2008-07-01
Altbüron,6147,0,Altbüron,1122,LU,7.8940791180998495,47.19079084762361,de,2008-07-01
Zell LU,6144,0,Altishofen,1123,LU,7.929495387847463,47.16210618625773,de,2008-07-01
Buchs LU,6211,1,Dagmersellen,1125,LU,8.036778644242819,47.20208375448733,de,2008-07-01
Egolzwil,6243,0,Egolzwil,1127,LU,8.000175149167003,47.17980594150524,de,2008-07-01
Grosswangen,6022,0,Ettiswil,1128,LU,8.031770412232733,47.143538706618806,de,2008-07-01
Fischbach LU,6145,0,Fischbach,1129,LU,7.904235124714189,47.152940943526765,de,2008-07-01
Fischbach LU,6145,0,Grossdietwil,1131,LU,7.887096887358019,47.15048093385124,de,2008-07-01
Menzberg,6125,0,Hergiswil bei Willisau,1132,LU,7.981219760055383,47.04301034020776,de,2008-07-01
Eriswil,4952,0,Luthern,1135,LU,7.872936140370313,47.04875179129933,de,2008-07-01
Wolhusen,6110,0,Menznau,1136,LU,8.022938167272862,47.03100709464636,de,2008-07-01
Nebikon,6244,0,Nebikon,1137,LU,7.987253890968822,47.19174817395827,de,2008-07-01
St. Urban,4915,0,Pfaffnau,1139,LU,7.857132970353105,47.218202886422745,de,2008-07-01
Dagmersellen,6252,0,Reiden,1140,LU,7.972259211281897,47.23155137901792,de,2008-07-01
Roggliswil,6265,0,Roggliswil,1142,LU,7.883764893922673,47.21350390452881,de,2008-07-01
Ohmstal,6143,0,Schötz,1143,LU,7.954116389207261,47.15986005503397,de,2008-07-01
Eriswil,4952,0,Ufhusen,1145,LU,7.880937831572388,47.08619809432331,de,2008-07-01
Wauwil,6242,0,Wauwil,1146,LU,8.03082009738242,47.1842872350583,de,2008-07-01
Wikon,4806,0,Wikon,1147,LU,7.970505855951176,47.2654905390066,de,2008-07-01
Zell LU,6144,0,Zell (LU),1150,LU,7.926897644995554,47.13787316747017,de,2008-07-01
Menznau,6122,0,Willisau,1151,LU,8.022505514224338,47.09361816964202,de,2008-07-01
Bennau,8836,0,Einsiedeln,1301,SZ,8.716792398313036,47.14960742057043,de,2008-07-01
Rigi Scheidegg,6410,5,Gersau,1311,SZ,8.519080031651184,47.0264975313172,de,2008-07-01
Wollerau,8832,0,Feusisberg,1321,SZ,8.712784557242115,47.18609168051032,de,2008-07-01
Hurden,8640,3,Freienbach,1322,SZ,8.79742524175951,47.21328516576384,de,2008-07-01
Bäch SZ,8806,0,Wollerau,1323,SZ,8.717650029794232,47.20061392079698,de,2008-07-01
Merlischachen,6402,0,Küssnacht (SZ),1331,SZ,8.406012929408075,47.07052672510178,de,2008-07-01
Willerzell,8846,0,Altendorf,1341,SZ,8.824980519160983,47.149485451635485,de,2008-07-01
Lachen SZ,8853,0,Galgenen,1342,SZ,8.862109289922472,47.185381162403495,de,2008-07-01
Innerthal,8858,0,Innerthal,1343,SZ,8.920695214191127,47.05508131479846,de,2008-07-01
Lachen SZ,8853,0,Lachen,1344,SZ,8.858091119271739,47.19313083173381,de,2008-07-01
Reichenburg,8864,0,Reichenburg,1345,SZ,8.975637045758239,47.15944224834078,de,2008-07-01
Siebnen,8854,0,Schübelbach,1346,SZ,8.921659971937467,47.14859493261413,de,2008-07-01
Uznach,8730,0,Tuggen,1347,SZ,8.96888813585841,47.213758482729325,de,2008-07-01
Vorderthal,8857,0,Vorderthal,1348,SZ,8.894691760177441,47.12555664131143,de,2008-07-01
Lachen SZ,8853,0,Wangen (SZ),1349,SZ,8.862444674887396,47.202354315817146,de,2008-07-01
Alpthal,8849,0,Alpthal,1361,SZ,8.715417839451524,47.056354078825024,de,2008-07-01
Walchwil,6318,0,Arth,1362,SZ,8.523389525272442,47.08987460682263,de,2008-07-01
Illgau,6434,0,Illgau,1363,SZ,8.735711952432892,46.9973960610883,de,2008-07-01
Seewen SZ,6423,0,Ingenbohl,1364,SZ,8.603594260219559,47.016116290535045,de,2008-07-01
Lauerz,6424,0,Lauerz,1365,SZ,8.578882992171764,47.02645602362594,de,2008-07-01
Stoos SZ,6433,0,Morschach,1366,SZ,8.663793613573333,46.96980570349159,de,2008-07-01
Stoos SZ,6433,0,Muotathal,1367,SZ,8.695067665329448,46.98189681225581,de,2008-07-01
Unteriberg,8842,0,Oberiberg,1368,SZ,8.8240585755633,47.01462527131463,de,2008-07-01
Riemenstalden,6452,2,Riemenstalden,1369,SZ,8.706247345645675,46.939428159081466,de,2008-07-01
Rothenthurm,6418,0,Rothenthurm,1370,SZ,8.677200674265816,47.09705126360129,de,2008-07-01
Morgarten,6315,3,Sattel,1371,SZ,8.650216873683213,47.09962155848991,de,2008-07-01
Sattel,6417,0,Schwyz,1372,SZ,8.662566615544655,47.06151572921972,de,2008-07-01
Steinen,6422,0,Steinen,1373,SZ,8.610028370917167,47.052255877078025,de,2008-07-01
Steinerberg,6416,0,Steinerberg,1374,SZ,8.580146471766733,47.06495582862125,de,2008-07-01
Unteriberg,8842,0,Unteriberg,1375,SZ,8.799880219174574,47.05679494319588,de,2008-07-01
Näfels,8752,0,Glarus Nord,1630,GL,9.010832725954575,47.082083444646045,de,2008-07-01
Glarus,8750,0,Glarus Süd,1631,GL,9.075480027607504,47.02831856895632,de,2008-07-01
Glarus,8750,0,Glarus,1632,GL,9.05592970637092,47.03895236490702,de,2008-07-01
Zug,6300,0,Baar,1701,ZG,8.500370073295585,47.18617801624389,de,2008-07-01
Cham,6330,0,Cham,1702,ZG,8.45314792658592,47.19618112047405,de,2008-07-01
Mühlau,5642,0,Hünenberg,1703,ZG,8.397700215188221,47.22910035013257,de,2008-07-01
Menzingen,6313,0,Menzingen,1704,ZG,8.598352162373674,47.17038476852646,de,2008-07-01
Menzingen,6313,0,Neuheim,1705,ZG,8.607530428398151,47.19705770874842,de,2008-07-01
Unterägeri,6314,0,Oberägeri,1706,ZG,8.60547127008979,47.1180882267263,de,2008-07-01
Rotkreuz,6343,0,Risch,1707,ZG,8.43285172402192,47.14492259307173,de,2008-07-01
Steinhausen,6312,0,Steinhausen,1708,ZG,8.487953302113096,47.197955908251785,de,2008-07-01
Unterägeri,6314,0,Unterägeri,1709,ZG,8.58150832101754,47.1177806217968,de,2008-07-01
Walchwil,6318,0,Walchwil,1710,ZG,8.534494341444685,47.104398726357005,de,2008-07-01
Zug,6300,0,Zug,1711,ZG,8.526918354507854,47.16918811466173,de,2008-07-01
Gächlingen,8214,0,Gächlingen,2901,SH,8.497994546472972,47.710722836405466,de,2008-07-01
Guntmadingen,8223,0,Löhningen,2903,SH,8.556096184709531,47.69260621706747,de,2008-07-01
Neunkirch,8213,0,Neunkirch,2904,SH,8.50647254321453,47.681090500806654,de,2008-07-01
Schaffhausen,8200,0,Büttenhardt,2914,SH,8.631180725267715,47.74502146114104,de,2008-07-01
Dörflingen,8239,0,Dörflingen,2915,SH,8.714232782306524,47.70879730661707,de,2008-07-01
Lohn SH,8235,0,Lohn (SH),2917,SH,8.671061216098883,47.75728945597505,de,2008-07-01
Stetten SH,8234,0,Stetten (SH),2919,SH,8.656204561442472,47.73714969510859,de,2008-07-01
Opfertshofen SH,8236,2,Thayngen,2920,SH,8.661638629148182,47.77264376507939,de,2008-07-01
Bargen SH,8233,0,Bargen (SH),2931,SH,8.592043776372883,47.79417608318009,de,2008-07-01
Beringen,8222,0,Beringen,2932,SH,8.575847467450366,47.69822096490429,de,2008-07-01
Buchberg,8454,0,Buchberg,2933,SH,8.550952743256351,47.56852374497596,de,2008-07-01
Merishausen,8232,0,Merishausen,2936,SH,8.602405133700788,47.76295036685856,de,2008-07-01
Schaffhausen,8200,0,Neuhausen am Rheinfall,2937,SH,8.623743442393975,47.690092154823446,de,2008-07-01
Rüdlingen,8455,0,Rüdlingen,2938,SH,8.566236999410894,47.58674323979261,de,2008-07-01
Schaffhausen,8200,0,Schaffhausen,2939,SH,8.62594432745772,47.71766272355807,de,2008-07-01
Schleitheim,8226,0,Beggingen,2951,SH,8.511243258646806,47.76331205389737,de,2008-07-01
Schleitheim,8226,0,Schleitheim,2952,SH,8.502309253551301,47.75094123940139,de,2008-07-01
Siblingen,8225,0,Siblingen,2953,SH,8.520515511085954,47.719901064295534,de,2008-07-01
Buch SH,8263,0,Buch (SH),2961,SH,8.784504570118795,47.71616422267028,de,2008-07-01
Hemishofen,8261,0,Hemishofen,2962,SH,8.840550962073465,47.6843955290532,de,2008-07-01
Ramsen,8262,0,Ramsen,2963,SH,8.819330095971983,47.70659542400626,de,2008-07-01
Stein am Rhein,8260,0,Stein am Rhein,2964,SH,8.856540938331104,47.66535242471474,de,2008-07-01
Hallau,8215,0,Hallau,2971,SH,8.43977306348053,47.70147501172203,de,2008-07-01
Oberhallau,8216,0,Oberhallau,2972,SH,8.472352993751151,47.71425220348276,de,2008-07-01
Wilchingen,8217,0,Trasadingen,2973,SH,8.447012741243883,47.65778129364252,de,2008-07-01
Wilchingen,8217,0,Wilchingen,2974,SH,8.457619684075494,47.6663326713122,de,2008-07-01
Herisau,9100,0,Herisau,3001,AR,9.287514353478157,47.37927805831752,de,2008-07-01
Stein AR,9063,0,Hundwil,3002,AR,9.346822794704623,47.35589292639699,de,2008-07-01
Schönengrund,9105,0,Schönengrund,3003,AR,9.224108390172864,47.32614285501888,de,2008-07-01
Herisau,9100,0,Schwellbrunn,3004,AR,9.244681063229002,47.36699143380666,de,2008-07-01
St. Gallen,9014,0,Stein (AR),3005,AR,9.327677465931288,47.400619366431,de,2008-07-01
Schwellbrunn,9103,0,Urnäsch,3006,AR,9.272216362623038,47.34044029850878,de,2008-07-01
Herisau,9100,0,Waldstatt,3007,AR,9.267691593147497,47.3575759266241,de,2008-07-01
Trogen,9043,0,Bühler,3021,AR,9.448482795754456,47.39016220954864,de,2008-07-01
Trogen,9043,0,Gais,3022,AR,9.466022794812496,47.38948475566353,de,2008-07-01
Speicherschwendi,9037,0,Speicher,3023,AR,9.440204373563237,47.42709863228209,de,2008-07-01
St. Gallen,9012,0,Teufen (AR),3024,AR,9.369950700894227,47.406593850680125,de,2008-07-01
Trogen,9043,0,Trogen,3025,AR,9.482533201107392,47.40152475290515,de,2008-07-01
Grub AR,9035,0,Grub (AR),3031,AR,9.506555355820504,47.442042511740816,de,2008-07-01
Grub SG,9036,0,Heiden,3032,AR,9.52946942693996,47.45633623931603,de,2008-07-01
Wienacht-Tobel,9405,0,Lutzenberg,3033,AR,9.535058210467602,47.46446579551585,de,2008-07-01
Eggersriet,9034,0,Rehetobel,3034,AR,9.467196034251405,47.43650050999783,de,2008-07-01
Reute AR,9411,0,Reute (AR),3035,AR,9.563798881322592,47.40270109307146,de,2008-07-01
Trogen,9043,0,Wald (AR),3036,AR,9.498063786788212,47.406097738011326,de,2008-07-01
Wolfhalden,9427,0,Walzenhausen,3037,AR,9.56625850985334,47.43984373359163,de,2008-07-01
Heiden,9410,0,Wolfhalden,3038,AR,9.554041894946756,47.43887317199033,de,2008-07-01
Appenzell,9050,0,Appenzell,3101,AI,9.408914164561288,47.32283479978089,de,2008-07-01
Appenzell,9050,0,Gonten,3102,AI,9.38607755752097,47.34067491083939,de,2008-07-01
Appenzell,9050,0,Schlatt-Haslen,3104,AI,9.3910423369174,47.34789183057556,de,2008-07-01
Oberegg,9413,0,Oberegg,3111,AI,9.579779025277858,47.42350404480717,de,2008-07-01
Appenzell,9050,0,Schwende-Rüte,3112,AI,9.408470755763508,47.310193201657135,de,2008-07-01
Lömmenschwil,9308,0,Häggenschwil,3201,SG,9.341226603742149,47.50142412222942,de,2008-07-01
Hagenwil b. Amriswil,8580,5,Muolen,3202,SG,9.317256801435134,47.52952086372059,de,2008-07-01
St. Gallen,9000,0,St. Gallen,3203,SG,9.362229413478165,47.423634876806304,de,2008-07-01
St. Gallen,9008,0,Wittenbach,3204,SG,9.392537564763847,47.44601635390349,de,2008-07-01
Wittenbach,9300,0,Berg (SG),3211,SG,9.389970652799049,47.47527892801646,de,2008-07-01
Eggersriet,9034,0,Eggersriet,3212,SG,9.463672464220508,47.44138538620309,de,2008-07-01
Rorschach,9400,0,Goldach,3213,SG,9.482628542426257,47.47427551664023,de,2008-07-01
Tübach,9327,0,Mörschwil,3214,SG,9.444391535889116,47.48253119627707,de,2008-07-01
Rorschach,9400,0,Rorschach,3215,SG,9.493851159768804,47.47543897111781,de,2008-07-01
Rorschacherberg,9404,0,Rorschacherberg,3216,SG,9.500770236647172,47.46618710713519,de,2008-07-01
Berg SG,9305,0,Steinach,3217,SG,9.421365405781716,47.49155822197925,de,2008-07-01
Horn,9326,0,Tübach,3218,SG,9.45099755990333,47.49039970489824,de,2008-07-01
Untereggen,9033,0,Untereggen,3219,SG,9.456892225193398,47.4527492562608,de,2008-07-01
Au SG,9434,0,Au (SG),3231,SG,9.638725461500895,47.43107523637839,de,2008-07-01
Heerbrugg,9435,0,Balgach,3232,SG,9.61990044034822,47.40968759539896,de,2008-07-01
Reute AR,9411,0,Berneck,3233,SG,9.594245885305227,47.42010909900563,de,2008-07-01
Balgach,9436,0,Diepoldsau,3234,SG,9.6239815652505,47.38253311604875,de,2008-07-01
Rheineck,9424,0,Rheineck,3235,SG,9.587773322693788,47.46675715152241,de,2008-07-01
Rheineck,9424,0,St. Margrethen,3236,SG,9.595303288239757,47.46082583813013,de,2008-07-01
Rorschacherberg,9404,0,Thal,3237,SG,9.531889953374655,47.473236101367085,de,2008-07-01
Heerbrugg,9435,0,Widnau,3238,SG,9.624784062625343,47.40542413573119,de,2008-07-01
Brülisau,9058,0,Altstätten,3251,SG,9.48513661010805,47.28344447457763,de,2008-07-01
Hinterforst,9452,0,Eichberg,3252,SG,9.52793005149526,47.3587213419308,de,2008-07-01
Marbach SG,9437,0,Marbach (SG),3253,SG,9.580641945375914,47.384342551135575,de,2008-07-01
Balgach,9436,0,Oberriet (SG),3254,SG,9.621027301616714,47.37613576794889,de,2008-07-01
Marbach SG,9437,0,Rebstein,3255,SG,9.570366080461762,47.39970206260995,de,2008-07-01
Oberriet SG,9463,0,Rüthi (SG),3256,SG,9.546721530398216,47.30533792488894,de,2008-07-01
Haag (Rheintal),9469,0,Buchs (SG),3271,SG,9.483319446757678,47.19726042382024,de,2008-07-01
Gams,9473,0,Gams,3272,SG,9.43935654790334,47.21447738293411,de,2008-07-01
Haag (Rheintal),9469,0,Grabs,3273,SG,9.475638035000047,47.19576741089959,de,2008-07-01
Salez,9465,0,Sennwald,3274,SG,9.497224907793424,47.23519322077948,de,2008-07-01
Buchs SG,9470,0,Sevelen,3275,SG,9.44579257469868,47.14627861061865,de,2008-07-01
Sargans,7320,0,Wartau,3276,SG,9.471537703609268,47.06751523064784,de,2008-07-01
Bad Ragaz,7310,0,Bad Ragaz,3291,SG,9.472967758225977,47.00773435649094,de,2008-07-01
Heiligkreuz (Mels),8888,0,Flums,3292,SG,9.391451517887678,47.07307842628688,de,2008-07-01
Schwendi im Weisstannental,7325,0,Mels,3293,SG,9.36532820748443,47.00548224475902,de,2008-07-01
Pfäfers,7312,0,Pfäfers,3294,SG,9.518703048805504,46.98408134949029,de,2008-07-01
Murg,8877,0,Quarten,3295,SG,9.18188656962294,47.0425719918558,de,2008-07-01
Sargans,7320,0,Sargans,3296,SG,9.448781305221884,47.054316190781776,de,2008-07-01
Wangs,7323,0,Vilters-Wangs,3297,SG,9.41220146718465,47.002703886812654,de,2008-07-01
Quinten,8878,0,Walenstadt,3298,SG,9.252679947955237,47.13052785049563,de,2008-07-01
Weesen,8872,0,Amden,3311,SG,9.108715819548554,47.14161760417766,de,2008-07-01
Benken SG,8717,0,Benken (SG),3312,SG,8.996016137791964,47.19243798728325,de,2008-07-01
Benken SG,8717,0,Kaltbrunn,3313,SG,9.00634669287732,47.20689055259908,de,2008-07-01
Schänis,8718,0,Schänis,3315,SG,9.063119128068138,47.1586334305081,de,2008-07-01
Weesen,8872,0,Weesen,3316,SG,9.101959139419286,47.14078494453552,de,2008-07-01
Schmerikon,8716,0,Schmerikon,3338,SG,8.939035729367246,47.22596187375922,de,2008-07-01
Schmerikon,8716,0,Uznach,3339,SG,8.960855212107191,47.2284745821755,de,2008-07-01
Rüti ZH,8630,0,Rapperswil-Jona,3340,SG,8.850692621585697,47.25014715891235,de,2008-07-01
Ernetschwil,8725,0,Gommiswald,3341,SG,8.997483658933772,47.24193324745134,de,2008-07-01
Wald ZH,8636,0,Eschenbach (SG),3342,SG,8.94961981337948,47.2869442389932,de,2008-07-01
Hemberg,9633,0,Ebnat-Kappel,3352,SG,9.16360335574422,47.27660122275729,de,2008-07-01
Urnäsch,9107,0,Wildhaus-Alt St. Johann,3359,SG,9.328036774560577,47.248395137649965,de,2008-07-01
Urnäsch,9107,0,Nesslau,3360,SG,9.305882759757184,47.25481538524109,de,2008-07-01
Lichtensteig,9620,0,Lichtensteig,3374,SG,9.094973775435715,47.32418769438195,de,2008-07-01
Ricken SG,8726,0,Wattwil,3379,SG,9.050446580745357,47.26099355109555,de,2008-07-01
Fischingen,8376,0,Kirchberg (SG),3392,SG,8.982662579917323,47.40662544722409,de,2008-07-01
Nassen,9123,0,Lütisburg,3393,SG,9.145214517383383,47.39228399774506,de,2008-07-01
Au TG,8376,2,Mosnang,3394,SG,8.961732883210825,47.382196774226,de,2008-07-01
Lütisburg Station,9601,0,Bütschwil-Ganterschwil,3395,SG,9.065432781004688,47.38107928041949,de,2008-07-01
Schwellbrunn,9103,0,Neckertal,3396,SG,9.19578522436247,47.3464900996943,de,2008-07-01
Degersheim,9113,0,Degersheim,3401,SG,9.192479110281369,47.370710452935874,de,2008-07-01
Degersheim,9113,0,Flawil,3402,SG,9.220182529907358,47.38644047918142,de,2008-07-01
Oberuzwil,9242,0,Jonschwil,3405,SG,9.103621551116325,47.43431345788227,de,2008-07-01
Flawil,9230,0,Oberuzwil,3407,SG,9.161522149599609,47.41511293568901,de,2008-07-01
Uzwil,9240,0,Uzwil,3408,SG,9.136139582901956,47.436367937722586,de,2008-07-01
Gossau SG,9200,0,Niederbüren,3422,SG,9.235019226590673,47.44391495373822,de,2008-07-01
Schweizersholz,9223,0,Niederhelfenschwil,3423,SG,9.17878217083426,47.49549753885166,de,2008-07-01
Niederwil SG,9203,0,Oberbüren,3424,SG,9.19994535387578,47.43043561855279,de,2008-07-01
Wil SG,9500,0,Zuzwil (SG),3426,SG,9.073298914321867,47.467099100343816,de,2008-07-01
Wil SG,9500,0,Wil (SG),3427,SG,9.049559840501836,47.463178593376334,de,2008-07-01
Andwil SG,9204,0,Andwil (SG),3441,SG,9.279697297882302,47.43857541915363,de,2008-07-01
Abtwil SG,9030,0,Gaiserwald,3442,SG,9.314609845713024,47.427369903383045,de,2008-07-01
St. Gallen,9015,0,Gossau (SG),3443,SG,9.289088159542512,47.40523335356764,de,2008-07-01
Engelburg,9032,0,Waldkirch,3444,SG,9.324982850484965,47.45307391987885,de,2008-07-01
Parpan,7076,0,Vaz/Obervaz,3506,GR,9.55351787113008,46.7602795660467,de,2008-07-01
Lantsch/Lenz,7083,0,Lantsch/Lenz,3513,GR,9.57715628317344,46.699810782425565,multiple,2008-07-01
Schmitten (Albula),7493,0,Schmitten (GR),3514,GR,9.678118749653237,46.7015805557547,de,2008-07-01
Brienz/Brinzauls GR,7084,0,Albula/Alvra,3542,GR,9.599114351581584,46.68688997442011,multiple,2008-07-01
Cunter,7452,0,Surses,3543,GR,9.605779102208617,46.62350852867407,rm,2008-07-01
Filisur,7477,0,Bergün Filisur,3544,GR,9.697851210848322,46.644688655590215,rm,2008-07-01
Brusio,7743,0,Brusio,3551,GR,10.12161855004057,46.272986758614,it,2008-07-01
Ospizio Bernina,7710,0,Poschiavo,3561,GR,10.017268136584756,46.3854397769334,it,2008-07-01
Laax GR 2,7032,0,Falera,3572,GR,9.192556068532504,46.84636088327198,rm,2008-07-01
Laax GR,7031,0,Laax,3575,GR,9.264910932621044,46.80888794832045,rm,2008-07-01
Sagogn,7152,0,Sagogn,3581,GR,9.280982207740497,46.79868188575635,rm,2008-07-01
Schluein,7151,0,Schluein,3582,GR,9.22753052843424,46.79262092729687,rm,2008-07-01
St. Martin (Lugnez),7116,2,Vals,3603,GR,9.198188525161855,46.659713688733945,de,2008-07-01
Peiden,7110,0,Lumnezia,3618,GR,9.194044040318802,46.71658571531125,rm,2008-07-01
Pitasch,7111,0,Ilanz/Glion,3619,GR,9.2420566321854,46.7228428120111,rm,2008-07-01
Fürstenaubruck,7413,0,Fürstenau,3633,GR,9.448990426153784,46.71504371511117,rm,2008-07-01
Rothenbrunnen,7405,0,Rothenbrunnen,3637,GR,9.420694041573324,46.77564402028145,rm,2008-07-01
Scharans,7412,0,Scharans,3638,GR,9.48220436663112,46.71520108552236,rm,2008-07-01
Sils im Domleschg,7411,0,Sils im Domleschg,3640,GR,9.471725300695669,46.6905129439943,de,2008-07-01
Rothenbrunnen,7405,0,Cazis,3661,GR,9.416696862745985,46.76727527869776,rm,2008-07-01
Flerden,7426,0,Flerden,3662,GR,9.396771318131536,46.67057598890453,rm,2008-07-01
Summaprada,7421,0,Masein,3663,GR,9.424318184031328,46.71022959615584,de,2008-07-01
Thusis,7430,0,Thusis,3668,GR,9.431579851052096,46.68531643942261,de,2008-07-01
Tschappina,7428,0,Tschappina,3669,GR,9.358095662013865,46.67772715829961,de,2008-07-01
Urmein,7427,0,Urmein,3670,GR,9.397792811510165,46.69089970167926,de,2008-07-01
Versam,7104,0,Safiental,3672,GR,9.33493413361932,46.781025760863336,de,2008-07-01
Feldis/Veulden,7404,0,Domleschg,3673,GR,9.435499270439385,46.79721024275781,multiple,2008-07-01
Avers,7447,0,Avers,3681,GR,9.518788571266752,46.43411691464471,de,2022-04-01
Sufers,7434,0,Sufers,3695,GR,9.387472390524689,46.550923147825245,de,2008-07-01
Andeer,7440,0,Andeer,3701,GR,9.414000001254845,46.57848963931825,rm,2008-07-01
Rongellen,7430,2,Rongellen,3711,GR,9.439003512481436,46.67323544179583,rm,2008-07-01
Zillis,7432,0,Zillis-Reischen,3712,GR,9.46922706424652,46.64449338461428,rm,2008-07-01
Ausserferrera,7444,0,Ferrera,3713,GR,9.463332131691764,46.55320380248333,rm,2008-07-01
Splügen,7435,0,Rheinwald,3714,GR,9.326161913204707,46.53964904506788,de,2008-07-01
Donat,7433,0,Muntogna da Schons,3715,GR,9.422750976239085,46.63024403715618,rm,2008-07-01
Bonaduz,7402,0,Bonaduz,3721,GR,9.352879767065788,46.80269134913088,de,2008-07-01
Domat/Ems,7013,0,Domat/Ems,3722,GR,9.451080803292998,46.81961461199172,multiple,2008-07-01
Rhäzüns,7403,0,Rhäzüns,3723,GR,9.39495828109363,46.78592756901364,rm,2008-07-01
Felsberg,7012,0,Felsberg,3731,GR,9.462200659787976,46.86017110250658,de,2008-07-01
Flims Dorf,7017,0,Flims,3732,GR,9.268585709593896,46.85544233286327,rm,2008-07-01
Tamins,7015,0,Tamins,3733,GR,9.409077841578055,46.843249764099646,de,2008-07-01
Trin,7014,0,Trin,3734,GR,9.32159169095317,46.87792030020058,rm,2008-07-01
Brail,7527,0,Zernez,3746,GR,10.012938011162587,46.681211334013874,rm,2008-07-01
Samnaun-Compatsch,7562,0,Samnaun,3752,GR,10.40531028181175,46.964566654096586,de,2008-07-01
Guarda,7545,0,Scuol,3762,GR,10.140768398865344,46.8200835950267,rm,2008-07-01
Ramosch,7556,0,Valsot,3764,GR,10.412526932092543,46.833902480926405,rm,2008-07-01
Bever,7502,0,Bever,3781,GR,9.866116227857122,46.5536329947718,rm,2008-07-01
St. Moritz,7500,0,Celerina/Schlarigna,3782,GR,9.865364471634637,46.49613904981555,rm,2008-07-01
Madulain,7523,0,Madulain,3783,GR,10.004121134674342,46.497900682580166,rm,2008-07-01
Pontresina,7504,0,Pontresina,3784,GR,9.934629283412376,46.435531443726695,rm,2008-07-01
La Punt Chamues-ch,7522,0,La Punt Chamues-ch,3785,GR,9.959870111138953,46.538717270834326,rm,2020-10-01
Samedan,7503,0,Samedan,3786,GR,9.846145911841097,46.53513194264352,rm,2008-07-01
St. Moritz,7500,0,St. Moritz,3787,GR,9.833533722616227,46.4855338307132,rm,2008-07-01
S-chanf,7525,0,S-chanf,3788,GR,10.02108720774117,46.59476474968157,rm,2008-07-01
Sils/Segl Maria,7514,0,Sils im Engadin/Segl,3789,GR,9.779705520166951,46.43537662985103,multiple,2008-07-01
Champfèr,7512,0,Silvaplana,3790,GR,9.80679320150056,46.47768882570631,rm,2008-07-01
Zuoz,7524,0,Zuoz,3791,GR,9.886658450650131,46.61164229502698,rm,2008-07-01
Avers,7447,0,Bregaglia,3792,GR,9.504365942198294,46.40152915594079,de,2022-04-01
Buseno,6542,0,Buseno,3804,GR,9.098360106539586,46.273831063647705,it,2008-07-01
Grono,6537,0,Castaneda,3805,GR,9.14431733636981,46.25156897221637,it,2008-07-01
Rossa,6548,0,Rossa,3808,GR,9.131465773469603,46.40894284858842,it,2008-07-01
Sta. Maria in Calanca,6541,0,Santa Maria in Calanca,3810,GR,9.143765919131871,46.27652277578362,it,2008-07-01
Lostallo,6558,0,Lostallo,3821,GR,9.225584021502494,46.303400987299895,it,2008-07-01
Mesocco,6563,0,Mesocco,3822,GR,9.22094816235979,46.40077125571043,it,2008-07-01
Soazza,6562,0,Soazza,3823,GR,9.2294158586282,46.35009846299404,it,2008-07-01
Cama,6557,0,Cama,3831,GR,9.202608914507218,46.26084531779238,it,2008-07-01
Grono,6537,0,Grono,3832,GR,9.183320321512776,46.232613119172086,it,2008-07-01
Roveredo GR,6535,0,Roveredo (GR),3834,GR,9.150693322294622,46.20131436757988,it,2008-07-01
Lumino,6533,0,San Vittore,3835,GR,9.075473238105866,46.23494916684381,it,2008-07-01
Arvigo,6543,0,Calanca,3837,GR,9.09427671303238,46.30099818490349,it,2008-07-01
Tschierv,7532,0,Val Müstair,3847,GR,10.2991597249661,46.64207875396077,rm,2008-07-01
Davos Dorf,7260,0,Davos,3851,GR,9.878938592154814,46.77647049754928,de,2008-07-01
Fideris,7235,0,Fideris,3861,GR,9.736869071118129,46.887940738456905,de,2008-07-01
Furna,7232,0,Furna,3862,GR,9.660426535204936,46.91153440901749,de,2008-07-01
Pragg-Jenaz,7231,0,Jenaz,3863,GR,9.69687529795033,46.941963457671896,de,2008-07-01
Saas im Prättigau,7247,0,Klosters,3871,GR,9.846175319604145,46.91603263019812,de,2008-07-01
Conters im Prättigau,7241,0,Conters im Prättigau,3881,GR,9.787323941146372,46.884587218639545,de,2008-07-01
Küblis,7240,0,Küblis,3882,GR,9.7930607863117,46.92456718804215,de,2008-07-01
Lunden,7222,0,Luzein,3891,GR,9.73566417433717,46.95057435625809,de,2015-05-01
Chur,7000,0,Chur,3901,GR,9.532686474974888,46.85904370936499,de,2008-07-01
Chur,7000,0,Churwalden,3911,GR,9.547085866660169,46.83261868456994,de,2008-07-01
Castiel,7027,0,Arosa,3921,GR,9.615835190320588,46.84960609962556,de,2008-07-01
Says,7202,0,Trimmis,3945,GR,9.59424589052185,46.90549571228239,de,2008-07-01
Untervaz,7204,0,Untervaz,3946,GR,9.517710680730511,46.9213692848338,de,2008-07-01
Zizers,7205,0,Zizers,3947,GR,9.56080083748643,46.93985720377459,de,2008-07-01
Maienfeld,7304,0,Fläsch,3951,GR,9.57647059662592,47.041769201001216,de,2008-07-01
Jenins,7307,0,Jenins,3952,GR,9.565601974559184,47.00778544636912,de,2008-07-01
Landquart,7302,0,Maienfeld,3953,GR,9.555784099864274,46.96988373594763,de,2008-07-01
Malans GR,7208,0,Malans,3954,GR,9.581817329716143,46.989560589509104,de,2008-07-01
Untervaz,7204,0,Landquart,3955,GR,9.541186585526807,46.94812059771768,de,2008-07-01
Valzeina,7213,0,Grüsch,3961,GR,9.616063556884852,46.96762516527515,de,2008-07-01
Grüsch,7214,0,Schiers,3962,GR,9.663186270505896,46.97622257536833,de,2008-07-01
Seewis Dorf,7212,0,Seewis im Prättigau,3972,GR,9.63382390524616,47.01810498947039,de,2008-07-01
Obersaxen,7134,0,Breil/Brigels,3981,GR,9.032961081149304,46.74273564205799,de,2015-05-01
Disentis/Mustér,7180,0,Disentis/Mustér,3982,GR,8.842691439248194,46.74546242711243,multiple,2008-07-01
Curaglia,7184,0,Medel (Lucmagn),3983,GR,8.878387622007825,46.66983011066274,rm,2008-07-01
Rabius,7172,0,Sumvitg,3985,GR,8.954751823739551,46.74382103359567,rm,2008-07-01
Camischolas,7187,0,Tujetsch,3986,GR,8.76107206756993,46.68111165889195,rm,2008-07-01
Trun,7166,0,Trun,3987,GR,8.980040435049142,46.729009477430985,rm,2008-07-01
Obersaxen,7134,0,Obersaxen Mundaun,3988,GR,9.067954675856384,46.72044027108723,de,2015-05-01
Aarau,5000,0,Aarau,4001,AG,8.048667760607614,47.389014229547925,de,2008-07-01
Biberstein,5023,0,Biberstein,4002,AG,8.082763770221083,47.41949713646044,de,2008-07-01
Buchs AG,5033,0,Buchs (AG),4003,AG,8.07560519375252,47.3931037186958,de,2008-07-01
Asp,5025,0,Densbüren,4004,AG,8.053912333434013,47.44178894974559,de,2008-07-01
Barmelweid,5017,0,Erlinsbach (AG),4005,AG,7.973964851373181,47.4224148896691,de,2008-07-01
Gränichen,5722,0,Gränichen,4006,AG,8.105662035342664,47.35430239260448,de,2008-07-01
Hirschthal,5042,0,Hirschthal,4007,AG,8.067830652343764,47.31754098224154,de,2008-07-01
Rombach,5022,0,Küttigen,4008,AG,8.044017004110609,47.40501532966564,de,2008-07-01
Muhen,5037,0,Muhen,4009,AG,8.063227440974773,47.33409623701251,de,2008-07-01
Oberentfelden,5036,0,Oberentfelden,4010,AG,8.039591851008492,47.35410045441054,de,2008-07-01
Aarau,5000,0,Suhr,4012,AG,8.060524136178941,47.3814904064999,de,2008-07-01
Unterentfelden,5035,0,Unterentfelden,4013,AG,8.041196829922631,47.36861801773308,de,2008-07-01
Turgi,5300,0,Baden,4021,AG,8.261214301826566,47.48810387691877,de,2008-07-01
Bellikon,5454,0,Bellikon,4022,AG,8.348353962088607,47.39189617829158,de,2008-07-01
Bergdietikon,8962,0,Bergdietikon,4023,AG,8.3792678185418,47.38846693758359,de,2008-07-01
Rütihof,5406,2,Birmenstorf (AG),4024,AG,8.260872448540876,47.437926019098256,de,2008-07-01
Ennetbaden,5408,0,Ennetbaden,4026,AG,8.327677667825807,47.47980925368689,de,2008-07-01
Dättwil AG,5405,2,Fislisbach,4027,AG,8.295483953243554,47.44544706125412,de,2008-07-01
Freienwil,5423,0,Freienwil,4028,AG,8.32052195503789,47.4983988295995,de,2008-07-01
Gebenstorf,5412,0,Gebenstorf,4029,AG,8.244022674038142,47.47996476948621,de,2008-07-01
Killwangen,8956,0,Killwangen,4030,AG,8.340881218532642,47.42748441962052,de,2008-07-01
Künten,5444,0,Künten,4031,AG,8.326414072900478,47.38908549020738,de,2008-07-01
Mägenwil,5506,0,Mägenwil,4032,AG,8.233507740898832,47.413777932780434,de,2008-07-01
Mellingen,5507,0,Mellingen,4033,AG,8.272670636930856,47.42046035640796,de,2008-07-01
Neuenhof,5432,0,Neuenhof,4034,AG,8.325297103637206,47.44462757283088,de,2008-07-01
Niederrohrdorf,5443,0,Niederrohrdorf,4035,AG,8.301870977213616,47.42276639676847,de,2008-07-01
Oberrohrdorf,5452,0,Oberrohrdorf,4037,AG,8.32284387919804,47.42388066090485,de,2008-07-01
Nussbaumen AG,5415,0,Obersiggenthal,4038,AG,8.295667835656207,47.49535986455664,de,2008-07-01
Remetschwil,5453,0,Remetschwil,4039,AG,8.334581830819534,47.40791498991933,de,2008-07-01
Dietikon,8953,0,Spreitenbach,4040,AG,8.381904893280945,47.40487047094232,de,2008-07-01
Stetten AG,5608,0,Stetten (AG),4041,AG,8.303434648557081,47.40356824864888,de,2008-07-01
Siggenthal Station,5301,0,Untersiggenthal,4044,AG,8.240913879189367,47.51478900006224,de,2008-07-01
Wettingen,5430,0,Wettingen,4045,AG,8.341832522508268,47.46268857702656,de,2008-07-01
Mägenwil,5506,0,Wohlenschwil,4046,AG,8.240581231470097,47.41948907111064,de,2008-07-01
Würenlingen,5303,0,Würenlingen,4047,AG,8.247669609833268,47.53098133320135,de,2008-07-01
Wettingen,5430,0,Würenlos,4048,AG,8.340620147064401,47.44700832275144,de,2008-07-01
Ehrendingen,5420,0,Ehrendingen,4049,AG,8.344616288623252,47.49558398361581,de,2008-07-01
Arni AG,8905,3,Arni (AG),4061,AG,8.41960452092253,47.3154366665591,de,2008-07-01
Rudolfstetten,8964,0,Berikon,4062,AG,8.387554384078902,47.35860100414403,de,2008-07-01
Bremgarten AG,5620,0,Bremgarten (AG),4063,AG,8.329450982497502,47.35501583116727,de,2008-07-01
Büttikon AG,5619,0,Büttikon,4064,AG,8.268075254215905,47.32847375306344,de,2008-07-01
Hendschiken,5604,0,Dottikon,4065,AG,8.227796516846764,47.39363327824936,de,2008-07-01
Eggenwil,5445,0,Eggenwil,4066,AG,8.338040169200399,47.371129099656606,de,2008-07-01
Fischbach-Göslikon,5525,0,Fischbach-Göslikon,4067,AG,8.312163950007747,47.3687341427491,de,2008-07-01
Tägerig,5522,0,Hägglingen,4068,AG,8.275981713570427,47.388425890365085,de,2008-07-01
Jonen,8916,0,Jonen,4071,AG,8.40083409423097,47.29974008241928,de,2008-07-01
Niederwil AG,5524,0,Niederwil (AG),4072,AG,8.292157869280466,47.37452918768721,de,2008-07-01
Oberlunkhofen,8917,0,Oberlunkhofen,4073,AG,8.400111236034592,47.31316132040312,de,2008-07-01
Oberwil-Lieli,8966,0,Oberwil-Lieli,4074,AG,8.391513521016424,47.33977586964947,de,2008-07-01
Rudolfstetten,8964,0,Rudolfstetten-Friedlisberg,4075,AG,8.387672577481505,47.36832904549465,de,2008-07-01
Sarmenstorf,5614,0,Sarmenstorf,4076,AG,8.250902079110976,47.31116984811147,de,2008-07-01
Tägerig,5522,0,Tägerig,4077,AG,8.278870538574273,47.397562124058695,de,2008-07-01
Uezwil,5619,2,Uezwil,4078,AG,8.27720660746746,47.31477268341855,de,2008-07-01
Unterlunkhofen,8918,0,Unterlunkhofen,4079,AG,8.391625573810877,47.322572063943305,de,2008-07-01
Dottikon,5605,0,Villmergen,4080,AG,8.238274501494836,47.36852872168394,de,2008-07-01
Widen,8967,0,Widen,4081,AG,8.35681933512823,47.36927986545668,de,2008-07-01
Wohlen AG,5610,0,Wohlen (AG),4082,AG,8.285771230761862,47.35069085458362,de,2008-07-01
Zufikon,5621,0,Zufikon,4083,AG,8.356663454262089,47.34707092583943,de,2008-07-01
Islisberg,8905,2,Islisberg,4084,AG,8.440595152146503,47.32491008103832,de,2008-07-01
Auenstein,5105,0,Auenstein,4091,AG,8.128956623965811,47.41856834227464,de,2008-07-01
Birr,5242,1,Birr,4092,AG,8.21104665609962,47.43219985808032,de,2008-07-01
Birrhard,5244,0,Birrhard,4093,AG,8.243093897585414,47.43579158150654,de,2008-07-01
Schinznach Bad,5116,0,Brugg,4095,AG,8.169780277751771,47.45362328616482,de,2008-07-01
Habsburg,5245,0,Habsburg,4099,AG,8.185766201208754,47.461761278304174,de,2008-07-01
Windisch,5210,0,Hausen (AG),4100,AG,8.208497622771004,47.47197352487616,de,2008-07-01
Hausen AG,5212,0,Lupfig,4104,AG,8.214322628162417,47.45309432985576,de,2008-07-01
Mandach,5318,0,Mandach,4105,AG,8.18850837079957,47.55177563079143,de,2008-07-01
Effingen,5078,0,Mönthal,4106,AG,8.120472297971125,47.51422505382084,de,2008-07-01
Mülligen,5243,0,Mülligen,4107,AG,8.240607682151104,47.45236691286356,de,2008-07-01
Remigen,5236,0,Remigen,4110,AG,8.179526632880053,47.51686470452632,de,2008-07-01
Riniken,5223,0,Riniken,4111,AG,8.186327096189192,47.49468960328736,de,2008-07-01
Brugg AG,5200,0,Rüfenach,4112,AG,8.231239984298902,47.505341232822005,de,2008-07-01
Thalheim AG,5112,0,Thalheim (AG),4117,AG,8.090747935231926,47.440832586466506,de,2008-07-01
Veltheim AG,5106,0,Veltheim (AG),4120,AG,8.145514337936683,47.43024226093627,de,2008-07-01
Stilli,5233,0,Villigen,4121,AG,8.231277521365369,47.5185418789433,de,2008-07-01
Schinznach Dorf,5107,0,Villnachern,4122,AG,8.158296741176262,47.46445770968802,de,2008-07-01
Windisch,5210,0,Windisch,4123,AG,8.220223252265907,47.47641396606039,de,2008-07-01
Bözberg,5225,1,Bözberg,4124,AG,8.151043717499338,47.48540104960944,de,2008-07-01
Schinznach Dorf,5107,0,Schinznach,4125,AG,8.132593550832635,47.454984386832336,de,2008-07-01
Beinwil am See,5712,0,Beinwil am See,4131,AG,8.205903261346874,47.26522407894826,de,2008-07-01
Birrwil,5708,0,Birrwil,4132,AG,8.191947217141081,47.29214970280803,de,2008-07-01
Dürrenäsch,5724,0,Dürrenäsch,4134,AG,8.15262801574159,47.31918937068745,de,2008-07-01
Schmiedrued,5046,1,Gontenschwil,4135,AG,8.121761169038354,47.26579222969325,de,2008-07-01
Holziken,5043,0,Holziken,4136,AG,8.033385204592182,47.31978018311206,de,2008-07-01
Leimbach AG,5733,0,Leimbach (AG),4137,AG,8.167970922652746,47.27459370219324,de,2008-07-01
Boniswil,5706,0,Leutwil,4138,AG,8.178930550351083,47.314414432709945,de,2008-07-01
Burg AG,5736,0,Menziken,4139,AG,8.178762492905154,47.23423711551912,de,2008-07-01
Oberkulm,5727,0,Oberkulm,4140,AG,8.124218949732303,47.29704995805359,de,2008-07-01
Reinach AG,5734,0,Reinach (AG),4141,AG,8.174827956431274,47.26351345580294,de,2008-07-01
Schlossrued,5044,0,Schlossrued,4142,AG,8.090680293344567,47.287328901823976,de,2008-07-01
Schmiedrued,5046,1,Schmiedrued,4143,AG,8.110417646823585,47.2706712209545,de,2008-07-01
Schöftland,5040,0,Schöftland,4144,AG,8.059361577169508,47.30613960996788,de,2008-07-01
Teufenthal AG,5723,0,Teufenthal (AG),4145,AG,8.128520263371726,47.32857755793353,de,2008-07-01
Gränichen,5722,0,Unterkulm,4146,AG,8.102389436722953,47.33589396456249,de,2008-07-01
Zetzwil,5732,0,Zetzwil,4147,AG,8.159447114672172,47.2887881293322,de,2008-07-01
Eiken,5074,0,Eiken,4161,AG,7.989933782123725,47.53866620100992,de,2008-07-01
Frick,5070,0,Frick,4163,AG,8.011980275158406,47.5078598015329,de,2008-07-01
Gansingen,5272,0,Gansingen,4164,AG,8.131766130767922,47.53889944345665,de,2008-07-01
Wölflinswil,5063,0,Gipf-Oberfrick,4165,AG,8.000749462412262,47.48052364936354,de,2008-07-01
Laufenburg,5080,0,Kaisten,4169,AG,8.05349218907859,47.55240575288759,de,2008-07-01
Laufenburg,5080,0,Laufenburg,4170,AG,8.059892994709216,47.5564380147193,de,2008-07-01
Münchwilen AG,4333,0,Münchwilen (AG),4172,AG,7.962344962374673,47.53541928506503,de,2008-07-01
Oberhof,5062,0,Oberhof,4173,AG,8.0082931250602,47.44207746125029,de,2008-07-01
Oeschgen,5072,0,Oeschgen,4175,AG,8.017731182425976,47.52490180055061,de,2008-07-01
Schwaderloch,5326,0,Schwaderloch,4176,AG,8.142669095542882,47.5841879373109,de,2008-07-01
Sisseln AG,4334,0,Sisseln,4177,AG,7.984172689935029,47.551719226064606,de,2008-07-01
Wittnau,5064,0,Wittnau,4181,AG,7.968204241000887,47.47723236406583,de,2008-07-01
Densbüren,5026,0,Wölflinswil,4182,AG,8.026542675515092,47.46239197110173,de,2008-07-01
Zeihen,5079,0,Zeihen,4183,AG,8.093219187651608,47.46909747762667,de,2008-07-01
Oberhofen AG,5273,0,Mettauertal,4184,AG,8.12692537024728,47.55632700883627,de,2008-07-01
Hornussen,5075,0,Böztal,4185,AG,8.066584983790355,47.49972274518333,de,2008-07-01
Herznach,5027,0,Herznach-Ueken,4186,AG,8.0476731712043,47.47170905710625,de,2008-07-01
Ammerswil AG,5600,3,Ammerswil,4191,AG,8.206246814810775,47.36808493938873,de,2008-07-01
Boniswil,5706,0,Boniswil,4192,AG,8.190032195991886,47.31142383540169,de,2008-07-01
Brunegg,5505,0,Brunegg,4193,AG,8.218599628127386,47.42111936290864,de,2008-07-01
Dintikon,5606,0,Dintikon,4194,AG,8.22154797736881,47.36107603607989,de,2008-07-01
Seon,5703,0,Egliswil,4195,AG,8.171738216802416,47.35455347559992,de,2008-07-01
Fahrwangen,5615,0,Fahrwangen,4196,AG,8.243452415902473,47.290305381604696,de,2008-07-01
Hallwil,5705,0,Hallwil,4197,AG,8.176644281669624,47.328027410757024,de,2008-07-01
Hendschiken,5604,0,Hendschiken,4198,AG,8.216448687197966,47.384625132135085,de,2008-07-01
Holderbank AG,5113,0,Holderbank (AG),4199,AG,8.173533697186125,47.43045914772654,de,2008-07-01
Hunzenschwil,5502,0,Hunzenschwil,4200,AG,8.121661552026683,47.38275473935472,de,2008-07-01
Lenzburg,5600,0,Lenzburg,4201,AG,8.174388656035317,47.38036378184321,de,2008-07-01
Fahrwangen,5615,0,Meisterschwanden,4202,AG,8.234820782187265,47.296411044398624,de,2008-07-01
Wildegg,5103,0,Möriken-Wildegg,4203,AG,8.163031205928972,47.4166676065346,de,2008-07-01
Wildegg,5103,0,Niederlenz,4204,AG,8.165802359016945,47.41175750443608,de,2008-07-01
Othmarsingen,5504,0,Othmarsingen,4205,AG,8.21588925604178,47.40288572869135,de,2008-07-01
Rupperswil,5102,0,Rupperswil,4206,AG,8.133749057466451,47.403085894726885,de,2008-07-01
Schafisheim,5503,0,Schafisheim,4207,AG,8.13832528365639,47.37532851402782,de,2008-07-01
Seengen,5707,0,Seengen,4208,AG,8.209596909103194,47.329188590725046,de,2008-07-01
Seon,5703,0,Seon,4209,AG,8.158909029209227,47.34873917293619,de,2008-07-01
Staufen,5603,0,Staufen,4210,AG,8.159002155713077,47.3759490084343,de,2008-07-01
Abtwil AG,5646,0,Abtwil,4221,AG,8.352740327355647,47.17315021433342,de,2008-07-01
Aristau,5628,0,Aristau,4222,AG,8.368638397404938,47.290647602361545,de,2008-07-01
Beinwil (Freiamt),5637,0,Auw,4223,AG,8.347645869394952,47.21411598013496,de,2008-07-01
Beinwil (Freiamt),5637,0,Beinwil (Freiamt),4224,AG,8.343841292834796,47.229185002879255,de,2008-07-01
Besenbüren,5627,0,Besenbüren,4226,AG,8.34461329745964,47.31197522083189,de,2008-07-01
Bettwil,5618,0,Bettwil,4227,AG,8.270827379397277,47.292756841725605,de,2008-07-01
Boswil,5623,0,Boswil,4228,AG,8.3123122926781,47.29854484654042,de,2008-07-01
Bünzen,5624,0,Bünzen,4229,AG,8.325742792401977,47.31585159089399,de,2008-07-01
Buttwil,5632,0,Buttwil,4230,AG,8.305392575733851,47.26962772871914,de,2008-07-01
Inwil,6034,0,Dietwil,4231,AG,8.379939256427003,47.14278992237138,de,2008-07-01
Geltwil,5637,2,Geltwil,4232,AG,8.325952905601225,47.24937217931184,de,2008-07-01
Kallern,5625,0,Kallern,4233,AG,8.289749301158238,47.31203672258938,de,2008-07-01
Merenschwand,5634,0,Merenschwand,4234,AG,8.384374218216829,47.264005351971775,de,2008-07-01
Mühlau,5642,0,Mühlau,4235,AG,8.390250114942871,47.23287190103867,de,2008-07-01
Muri AG,5630,0,Muri (AG),4236,AG,8.338635662652798,47.27666960177727,de,2008-07-01
Oberrüti,5647,0,Oberrüti,4237,AG,8.39676981575265,47.17060348086925,de,2008-07-01
Rottenschwil,8919,0,Rottenschwil,4238,AG,8.365864501625666,47.31471128625928,de,2008-07-01
Sins,5643,0,Sins,4239,AG,8.346378650147969,47.18871628676397,de,2008-07-01
Waltenschwil,5622,0,Waltenschwil,4240,AG,8.296932626538345,47.334052140395045,de,2008-07-01
Hellikon,4316,0,Hellikon,4251,AG,7.917470859058312,47.50880983270713,de,2008-07-01
Kaiseraugst,4303,0,Kaiseraugst,4252,AG,7.741803638229205,47.53567452278295,de,2008-07-01
Olsberg,4305,0,Magden,4253,AG,7.795309350191194,47.52432380252314,de,2008-07-01
Möhlin,4313,0,Möhlin,4254,AG,7.854639748162702,47.566756299686496,de,2008-07-01
Mumpf,4322,0,Mumpf,4255,AG,7.917949834285563,47.54484231636015,de,2008-07-01
Obermumpf,4324,0,Obermumpf,4256,AG,7.938736697015649,47.528150920256834,de,2008-07-01
Olsberg,4305,0,Olsberg,4257,AG,7.774195138548737,47.52916090929109,de,2008-07-01
Kaiseraugst,4303,0,Rheinfelden,4258,AG,7.762419868116321,47.54206092312639,de,2008-07-01
Schupfart,4325,0,Schupfart,4259,AG,7.963094408236862,47.513947385110114,de,2008-07-01
Stein AG,4332,0,Stein (AG),4260,AG,7.949850089275613,47.54069658248028,de,2008-07-01
Wallbach,4323,0,Wallbach,4261,AG,7.894856179446306,47.56961457731519,de,2008-07-01
Wegenstetten,4317,0,Wegenstetten,4262,AG,7.934038215371416,47.49643721741984,de,2008-07-01
Zeiningen,4314,0,Zeiningen,4263,AG,7.876208547736645,47.54456331014619,de,2008-07-01
Zuzgen,4315,0,Zuzgen,4264,AG,7.904148179989319,47.52354195096393,de,2008-07-01
Olten,4600,0,Aarburg,4271,AG,7.908583167547311,47.34133399289573,de,2008-07-01
Uerkheim,4813,0,Bottenwil,4273,AG,8.003299448082647,47.29615546205724,de,2008-07-01
Vordemwald,4803,0,Brittnau,4274,AG,7.898857253706616,47.26017301059915,de,2008-07-01
Kirchleerau,5054,1,Kirchleerau,4275,AG,8.073105083038511,47.27683593617035,de,2008-07-01
Uerkheim,4813,0,Kölliken,4276,AG,8.018900720434514,47.31329139763421,de,2008-07-01
Moosleerau,5054,2,Moosleerau,4277,AG,8.068288402647662,47.26563345623769,de,2008-07-01
Murgenthal,4853,0,Murgenthal,4279,AG,7.834017071185027,47.26642364804263,de,2008-07-01
Starrkirch-Wil,4656,0,Oftringen,4280,AG,7.923003128347458,47.3327468005727,de,2008-07-01
Attelwil,5056,0,Reitnau,4281,AG,8.038140673309442,47.26291579139494,de,2008-07-01
Strengelbach,4802,0,Rothrist,4282,AG,7.920114362046709,47.29982925949004,de,2008-07-01
Safenwil,5745,0,Safenwil,4283,AG,7.986277982281018,47.32128864295209,de,2008-07-01
Staffelbach,5053,0,Staffelbach,4284,AG,8.036922407893645,47.28182042102704,de,2008-07-01
Strengelbach,4802,0,Strengelbach,4285,AG,7.923476554168371,47.283154329579006,de,2008-07-01
Mühlethal,4812,0,Uerkheim,4286,AG,7.985267306058857,47.3037454584744,de,2008-07-01
Vordemwald,4803,0,Vordemwald,4287,AG,7.893093048353118,47.27135487960869,de,2008-07-01
Wiliberg,5058,0,Wiliberg,4288,AG,8.016435155999208,47.26629869369733,de,2008-07-01
Zofingen,4800,0,Zofingen,4289,AG,7.957507119405651,47.28727307101952,de,2008-07-01
Kleindöttingen,5314,0,Böttstein,4303,AG,8.238656649506053,47.56916876723171,de,2008-07-01
Döttingen,5312,0,Döttingen,4304,AG,8.25126103657603,47.55467602067071,de,2008-07-01
Endingen,5304,0,Endingen,4305,AG,8.293934362336538,47.527342263816784,de,2008-07-01
Fisibach,5467,0,Fisibach,4306,AG,8.405169341274712,47.55732479363693,de,2008-07-01
Full-Reuenthal,5324,0,Full-Reuenthal,4307,AG,8.202915536832952,47.60756573537741,de,2008-07-01
Klingnau,5313,0,Klingnau,4309,AG,8.249747547879391,47.58881645550041,de,2008-07-01
Koblenz,5322,0,Koblenz,4310,AG,8.24529419365661,47.60536211677845,de,2008-07-01
Leibstadt,5325,0,Leibstadt,4311,AG,8.177217020396707,47.5871434311499,de,2008-07-01
Lengnau AG,5426,0,Lengnau (AG),4312,AG,8.321871120412705,47.52654648030629,de,2008-07-01
Leuggern,5316,0,Leuggern,4313,AG,8.218044909826833,47.58741259057551,de,2008-07-01
Mellikon,5465,0,Mellikon,4314,AG,8.348086661503983,47.562181789806885,de,2008-07-01
Schneisingen,5425,0,Schneisingen,4318,AG,8.366590026628462,47.52797183363534,de,2008-07-01
Siglistorf,5462,0,Siglistorf,4319,AG,8.39084202366942,47.540857543541776,de,2008-07-01
Tegerfelden,5306,0,Tegerfelden,4320,AG,8.285579377657958,47.56059954619779,de,2008-07-01
Rietheim,5323,0,Zurzach,4324,AG,8.271813904585077,47.59894291146778,de,2008-07-01
Arbon,9320,0,Arbon,4401,TG,9.426014712808191,47.51142389827071,de,2008-07-01
Dozwil,8582,0,Dozwil,4406,TG,9.321523709446057,47.575585547164366,de,2008-07-01
Steinebrunn,9314,0,Egnach,4411,TG,9.341285171388408,47.53296229127277,de,2008-07-01
Hefenhofen,8580,7,Hefenhofen,4416,TG,9.313955401402463,47.55878707780921,de,2008-07-01
Horn,9326,0,Horn,4421,TG,9.460361957778495,47.49272074916564,de,2008-07-01
Kesswil,8593,0,Kesswil,4426,TG,9.314752076356411,47.58945466722424,de,2008-07-01
Freidorf TG,9306,0,Roggwil (TG),4431,TG,9.387612675658392,47.4850086747534,de,2008-07-01
Romanshorn,8590,0,Romanshorn,4436,TG,9.357849674873794,47.56503168586365,de,2008-07-01
Amriswil,8580,0,Salmsach,4441,TG,9.32757859296288,47.54527801760193,de,2008-07-01
Sommeri,8580,3,Sommeri,4446,TG,9.28137682252513,47.57030737813336,de,2008-07-01
Romanshorn,8590,0,Uttwil,4451,TG,9.353231818623945,47.57608841449039,de,2008-07-01
Amriswil,8580,0,Amriswil,4461,TG,9.29673985483812,47.54062830870014,de,2008-07-01
Bischofszell,9220,0,Bischofszell,4471,TG,9.24150413777478,47.49607529037861,de,2008-07-01
Erlen,8586,0,Erlen,4476,TG,9.233995153219762,47.54915119517187,de,2008-07-01
Hauptwil,9213,0,Hauptwil-Gottshaus,4486,TG,9.255271286778216,47.48620974906776,de,2008-07-01
Heldswil,9216,0,Hohentannen,4495,TG,9.226767209448733,47.52613714934759,de,2008-07-01
Kradolf,9214,2,Kradolf-Schönenberg,4501,TG,9.195580226008474,47.52601667396658,de,2008-07-01
Sulgen,8583,0,Sulgen,4506,TG,9.189000762370537,47.539108707883,de,2008-07-01
Zihlschlacht,8588,0,Zihlschlacht-Sitterdorf,4511,TG,9.261496734660064,47.520727074415646,de,2008-07-01
Basadingen,8254,0,Basadingen-Schlattingen,4536,TG,8.739555671932997,47.65875319285646,de,2008-07-01
Schlatt TG,8252,0,Diessenhofen,4545,TG,8.709667428253525,47.6788697762686,de,2008-07-01
Schlatt TG,8252,0,Schlatt (TG),4546,TG,8.700327146423525,47.669751177918464,de,2008-07-01
Aadorf,8355,0,Aadorf,4551,TG,8.904500479119497,47.493107301143816,de,2008-07-01
Frauenfeld,8500,0,Felben-Wellhausen,4561,TG,8.944877384264382,47.56513097367207,de,2008-07-01
Frauenfeld,8500,0,Frauenfeld,4566,TG,8.903850316157566,47.560302342568846,de,2008-07-01
Frauenfeld,8500,0,Gachnang,4571,TG,8.86535107773405,47.55277054992402,de,2008-07-01
Harenwilen,8553,2,Hüttlingen,4590,TG,8.998732536833586,47.568230304040746,de,2008-07-01
Frauenfeld,8500,0,Matzingen,4591,TG,8.93513493122215,47.54656519501184,de,2008-07-01
Niederneunforn,8525,0,Neunforn,4601,TG,8.775339167874977,47.59295321829429,de,2008-07-01
Stettfurt,9507,0,Stettfurt,4606,TG,8.960576887690262,47.52503979009216,de,2008-07-01
Frauenfeld,8500,0,Thundorf,4611,TG,8.94881538836733,47.559726292017416,de,2008-07-01
Uesslingen,8524,0,Uesslingen-Buch,4616,TG,8.828591847082905,47.58217318078808,de,2008-07-01
Warth,8532,0,Warth-Weiningen,4621,TG,8.868363077148393,47.58670911639206,de,2008-07-01
Altnau,8595,0,Altnau,4641,TG,9.259490972727724,47.602866442044615,de,2008-07-01
Kreuzlingen,8280,0,Bottighofen,4643,TG,9.204557479460949,47.63987912811845,de,2008-07-01
Ermatingen,8272,0,Ermatingen,4646,TG,9.084799325124504,47.65719009876032,de,2008-07-01
Gottlieben,8274,2,Gottlieben,4651,TG,9.12755517586282,47.66489922057658,de,2008-07-01
Güttingen,8594,0,Güttingen,4656,TG,9.28686365503922,47.59832663816468,de,2008-07-01
Hugelshofen,8565,0,Kemmental,4666,TG,9.116034110932372,47.59488375087681,de,2008-07-01
Kreuzlingen,8280,0,Kreuzlingen,4671,TG,9.175534061689245,47.64052803972193,de,2008-07-01
Langrickenbach,8585,4,Langrickenbach,4681,TG,9.247344096326705,47.583280562143976,de,2008-07-01
Illighausen,8574,1,Lengwil,4683,TG,9.20950757435402,47.60185041311848,de,2008-07-01
Scherzingen,8596,0,Münsterlingen,4691,TG,9.225266750022826,47.62582654771694,de,2008-07-01
Tägerwilen,8274,0,Tägerwilen,4696,TG,9.134760270524705,47.64778705636924,de,2008-07-01
Raperswilen,8558,0,Wäldi,4701,TG,9.05892541337436,47.63245660041085,de,2008-07-01
Amlikon-Bissegg,8514,0,Affeltrangen,4711,TG,9.033186705109207,47.54174302308295,de,2008-07-01
Bettwiesen,9553,0,Bettwiesen,4716,TG,9.02440913417387,47.49794460686461,de,2008-07-01
Balterswil,8362,0,Bichelsee-Balterswil,4721,TG,8.93822850677698,47.45212944138911,de,2008-07-01
Braunau,9502,0,Braunau,4723,TG,9.06951253650813,47.504047106928525,de,2008-07-01
Eschlikon TG,8360,0,Eschlikon,4724,TG,8.965558504967417,47.46007666103164,de,2008-07-01
Wiezikon b. Sirnach,8372,0,Fischingen,4726,TG,8.980648570880454,47.442382241636544,de,2008-07-01
Lommis,9506,0,Lommis,4741,TG,8.996644119221779,47.514038941315306,de,2008-07-01
Eschlikon TG,8360,0,Münchwilen (TG),4746,TG,8.970225629339952,47.4764707302514,de,2008-07-01
Rickenbach b. Wil,9532,0,Rickenbach (TG),4751,TG,9.04587615834396,47.448333789370345,de,2008-07-01
Schönholzerswilen,8577,0,Schönholzerswilen,4756,TG,9.132586600021364,47.51386670925183,de,2008-07-01
Sirnach,8370,0,Sirnach,4761,TG,8.99870531854074,47.46157780802858,de,2008-07-01
Tägerschen,9554,0,Tobel-Tägerschen,4776,TG,9.026902772856124,47.5050240161094,de,2008-07-01
Wängi,9545,0,Wängi,4781,TG,8.967419450548318,47.497711169589536,de,2008-07-01
Wilen b. Wil,9535,0,Wilen (TG),4786,TG,9.032006697685912,47.44709090119676,de,2008-07-01
Wuppenau,9514,0,Wuppenau,4791,TG,9.10890685993538,47.49844538382917,de,2008-07-01
Berlingen,8267,0,Berlingen,4801,TG,9.029456249324186,47.6650837108974,de,2008-07-01
Eschenz,8264,0,Eschenz,4806,TG,8.881666231725344,47.63584311983764,de,2008-07-01
Lanzenneunforn,8506,0,Herdern,4811,TG,8.931728271769375,47.62209423116662,de,2008-07-01
Hörhausen,8507,0,Homburg,4816,TG,8.951737993872758,47.63841633766548,de,2008-07-01
Herdern,8535,0,Hüttwilen,4821,TG,8.903905796361292,47.62566112785082,de,2008-07-01
Eschenz,8264,0,Mammern,4826,TG,8.905592212324429,47.633254652981314,de,2008-07-01
Müllheim Dorf,8555,0,Müllheim,4831,TG,9.00545379042254,47.601215854394106,de,2008-07-01
Pfyn,8505,0,Pfyn,4841,TG,8.95503564654706,47.59945093516235,de,2008-07-01
Raperswilen,8558,0,Raperswilen,4846,TG,9.046899643346388,47.63832341767376,de,2008-07-01
Mannenbach-Salenstein,8268,0,Salenstein,4851,TG,9.047289430818717,47.670767864880766,de,2008-07-01
Steckborn,8266,0,Steckborn,4864,TG,8.999177576908341,47.65868688624462,de,2008-07-01
Kaltenbach,8259,0,Wagenhausen,4871,TG,8.837730920555778,47.64548064005625,de,2008-07-01
Amlikon-Bissegg,8514,0,Amlikon-Bissegg,4881,TG,9.03653880114244,47.55554135627966,de,2008-07-01
Weinfelden,8570,0,Berg (TG),4891,TG,9.14123776176665,47.569973777264,de,2008-07-01
Mattwil,8585,1,Birwinken,4901,TG,9.209076931438902,47.57786985973991,de,2008-07-01
Bürglen TG,8575,0,Bürglen (TG),4911,TG,9.1512486160462,47.55306081655366,de,2008-07-01
Bürglen TG,8575,0,Bussnang,4921,TG,9.133722578236464,47.53650468759919,de,2008-07-01
Märstetten,8560,0,Märstetten,4941,TG,9.07461288105016,47.59338900603502,de,2008-07-01
Weinfelden,8570,0,Weinfelden,4946,TG,9.10741796932927,47.56860068149108,de,2008-07-01
Müllheim-Wigoltingen,8554,0,Wigoltingen,4951,TG,9.013695869260674,47.59003974661348,de,2008-07-01
